start=new Date('2022-08-04T00:00:00.000Z').valueOf();
sats=[{"MEAN_MOTION_DOT":"0.00000384","REF_FRAME":"TEME","EPHEMERIS_TYPE":"0","INCLINATION":"53.0546","ECCENTRICITY":"0.00015010","EPOCH":"2022-08-03T01:16:55.439616","LAUNCH_DATE":"2021-03-14","ARG_OF_PERICENTER":"78.3669","COUNTRY_CODE":"US","MEAN_ANOMALY":"281.7488","BSTAR":"0.00004470300000","DECAY_DATE":null,"MEAN_MOTION_DDOT":"0.0000000000000","RA_OF_ASC_NODE":"53.2605","REV_AT_EPOCH":"7820","FILE":"3528364","ELEMENT_SET_NO":"999","OBJECT_ID":"2021-021G","APOAPSIS":"548.279","MEAN_MOTION":"15.06391446","TIME_SYSTEM":"UTC","SITE":"AFETR","NORAD_CAT_ID":"47866","MEAN_ELEMENT_THEORY":"SGP4","PERIOD":"95.593","SEMIMAJOR_AXIS":"6925.375","RCS_SIZE":"LARGE","OBJECT_NAME":"STARLINK-2320","CENTER_NAME":"EARTH","PERIAPSIS":"546.200","TLE_LINE2":"2 47866  53.0546  53.2605 0001501  78.3669 281.7488 15.06391446 78207","OBJECT_TYPE":"PAYLOAD","TLE_LINE1":"1 47866U 21021G   22215.05341944  .00000384  00000-0  44703-4 0  9996","CLASSIFICATION_TYPE":"U","GP_ID":"209493217"},{"SEMIMAJOR_AXIS":"6925.360","PERIOD":"95.592","SITE":"AFETR","NORAD_CAT_ID":"47867","MEAN_ELEMENT_THEORY":"SGP4","OBJECT_ID":"2021-021H","FILE":"3528364","ELEMENT_SET_NO":"999","MEAN_MOTION":"15.06396263","APOAPSIS":"548.217","TIME_SYSTEM":"UTC","GP_ID":"209493468","OBJECT_TYPE":"PAYLOAD","CLASSIFICATION_TYPE":"U","TLE_LINE1":"1 47867U 21021H   22215.51140171  .00000559  00000-0  56402-4 0  9990","OBJECT_NAME":"STARLINK-2321","TLE_LINE2":"2 47867  53.0565  41.2028 0001433  82.6289 277.4863 15.06396263 78217","CENTER_NAME":"EARTH","PERIAPSIS":"546.233","RCS_SIZE":"LARGE","ARG_OF_PERICENTER":"82.6289","EPOCH":"2022-08-03T12:16:25.107744","LAUNCH_DATE":"2021-03-14","ECCENTRICITY":"0.00014330","REF_FRAME":"TEME","MEAN_MOTION_DOT":"0.00000559","EPHEMERIS_TYPE":"0","INCLINATION":"53.0565","REV_AT_EPOCH":"7821","RA_OF_ASC_NODE":"41.2028","MEAN_MOTION_DDOT":"0.0000000000000","BSTAR":"0.00005640200000","DECAY_DATE":null,"COUNTRY_CODE":"US","MEAN_ANOMALY":"277.4863"},{"RCS_SIZE":"LARGE","TLE_LINE2":"2 47868  53.0566 351.2363 0001333  90.3003 269.8138 15.06404252 78964","PERIAPSIS":"546.277","CENTER_NAME":"EARTH","OBJECT_NAME":"STARLINK-2323","CLASSIFICATION_TYPE":"U","TLE_LINE1":"1 47868U 21021J   22215.50494439  .00000716  00000-0  66929-4 0  9999","OBJECT_TYPE":"PAYLOAD","GP_ID":"209494167","MEAN_MOTION":"15.06404252","APOAPSIS":"548.124","TIME_SYSTEM":"UTC","FILE":"3528364","OBJECT_ID":"2021-021J","ELEMENT_SET_NO":"999","MEAN_ELEMENT_THEORY":"SGP4","SITE":"AFETR","NORAD_CAT_ID":"47868","PERIOD":"95.592","SEMIMAJOR_AXIS":"6925.336","MEAN_ANOMALY":"269.8138","COUNTRY_CODE":"US","MEAN_MOTION_DDOT":"0.0000000000000","DECAY_DATE":null,"BSTAR":"0.00006692900000","REV_AT_EPOCH":"7896","RA_OF_ASC_NODE":"351.2363","EPHEMERIS_TYPE":"0","INCLINATION":"53.0566","REF_FRAME":"TEME","MEAN_MOTION_DOT":"0.00000716","ECCENTRICITY":"0.00013330","LAUNCH_DATE":"2021-03-14","EPOCH":"2022-08-03T12:07:07.195296","ARG_OF_PERICENTER":"90.3003"},{"RCS_SIZE":"LARGE","TLE_LINE2":"2 47869  53.0540  41.2127 0001415  86.4016 273.7134 15.06398241 78366","CENTER_NAME":"EARTH","PERIAPSIS":"546.239","OBJECT_NAME":"STARLINK-2324","CLASSIFICATION_TYPE":"U","TLE_LINE1":"1 47869U 21021K   22215.50771387  .00000583  00000-0  58005-4 0  9998","OBJECT_TYPE":"PAYLOAD","GP_ID":"209492467","MEAN_MOTION":"15.06398241","APOAPSIS":"548.199","TIME_SYSTEM":"UTC","FILE":"3528364","OBJECT_ID":"2021-021K","ELEMENT_SET_NO":"999","MEAN_ELEMENT_THEORY":"SGP4","NORAD_CAT_ID":"47869","SITE":"AFETR","SEMIMAJOR_AXIS":"6925.354","PERIOD":"95.592","MEAN_ANOMALY":"273.7134","COUNTRY_CODE":"US","MEAN_MOTION_DDOT":"0.0000000000000","DECAY_DATE":null,"BSTAR":"0.00005800500000","REV_AT_EPOCH":"7836","RA_OF_ASC_NODE":"41.2127","EPHEMERIS_TYPE":"0","INCLINATION":"53.0540","REF_FRAME":"TEME","MEAN_MOTION_DOT":"0.00000583","ECCENTRICITY":"0.00014150","LAUNCH_DATE":"2021-03-14","EPOCH":"2022-08-03T12:11:06.478368","ARG_OF_PERICENTER":"86.4016"},{"CENTER_NAME":"EARTH","PERIAPSIS":"545.898","TLE_LINE2":"2 47870  53.0554  65.5321 0001886  73.3044 286.8152 15.06403062 77447","OBJECT_NAME":"STARLINK-2326","RCS_SIZE":"LARGE","GP_ID":"209498980","TLE_LINE1":"1 47870U 21021L   22215.65837381  .00000470  00000-0  50460-4 0  9995","CLASSIFICATION_TYPE":"U","OBJECT_TYPE":"PAYLOAD","MEAN_ELEMENT_THEORY":"SGP4","SITE":"AFETR","NORAD_CAT_ID":"47870","MEAN_MOTION":"15.06403062","APOAPSIS":"548.510","TIME_SYSTEM":"UTC","FILE":"3528463","ELEMENT_SET_NO":"999","OBJECT_ID":"2021-021L","PERIOD":"95.592","SEMIMAJOR_AXIS":"6925.339","MEAN_ANOMALY":"286.8152","COUNTRY_CODE":"US","RA_OF_ASC_NODE":"65.5321","REV_AT_EPOCH":"7744","DECAY_DATE":null,"BSTAR":"0.00005046000000","MEAN_MOTION_DDOT":"0.0000000000000","ECCENTRICITY":"0.00018860","EPHEMERIS_TYPE":"0","INCLINATION":"53.0554","MEAN_MOTION_DOT":"0.00000470","REF_FRAME":"TEME","ARG_OF_PERICENTER":"73.3044","LAUNCH_DATE":"2021-03-14","EPOCH":"2022-08-03T15:48:03.497184"},{"PERIOD":"95.591","SEMIMAJOR_AXIS":"6925.317","NORAD_CAT_ID":"47871","SITE":"AFETR","MEAN_ELEMENT_THEORY":"SGP4","OBJECT_ID":"2021-021M","FILE":"3528364","ELEMENT_SET_NO":"999","APOAPSIS":"548.178","MEAN_MOTION":"15.06410160","TIME_SYSTEM":"UTC","GP_ID":"209493969","OBJECT_TYPE":"PAYLOAD","CLASSIFICATION_TYPE":"U","TLE_LINE1":"1 47871U 21021M   22215.50401730 -.00001224  00000-0 -63237-4 0  9991","OBJECT_NAME":"STARLINK-2327","TLE_LINE2":"2 47871  53.0557  41.2411 0001437  79.6837 280.4314 15.06410160 78250","PERIAPSIS":"546.187","CENTER_NAME":"EARTH","RCS_SIZE":"LARGE","ARG_OF_PERICENTER":"79.6837","EPOCH":"2022-08-03T12:05:47.094720","LAUNCH_DATE":"2021-03-14","ECCENTRICITY":"0.00014370","REF_FRAME":"TEME","MEAN_MOTION_DOT":"-0.00001224","EPHEMERIS_TYPE":"0","INCLINATION":"53.0557","RA_OF_ASC_NODE":"41.2411","REV_AT_EPOCH":"7825","MEAN_MOTION_DDOT":"0.0000000000000","DECAY_DATE":null,"BSTAR":"-0.00006323700000","COUNTRY_CODE":"US","MEAN_ANOMALY":"280.4314"},{"SEMIMAJOR_AXIS":"6817.874","PERIOD":"93.376","FILE":"3528364","ELEMENT_SET_NO":"999","OBJECT_ID":"2021-021N","APOAPSIS":"446.053","MEAN_MOTION":"15.42159630","TIME_SYSTEM":"UTC","SITE":"AFETR","NORAD_CAT_ID":"47872","MEAN_ELEMENT_THEORY":"SGP4","OBJECT_TYPE":"PAYLOAD","TLE_LINE1":"1 47872U 21021N   22215.51320723 -.00003019  00000-0 -59680-4 0  9996","CLASSIFICATION_TYPE":"U","GP_ID":"209493667","RCS_SIZE":"LARGE","OBJECT_NAME":"STARLINK-2328","CENTER_NAME":"EARTH","PERIAPSIS":"433.424","TLE_LINE2":"2 47872  53.0509 324.0346 0009262 317.1750  42.8533 15.42159630 79352","EPOCH":"2022-08-03T12:19:01.104672","LAUNCH_DATE":"2021-03-14","ARG_OF_PERICENTER":"317.1750","MEAN_MOTION_DOT":"-0.00003019","REF_FRAME":"TEME","EPHEMERIS_TYPE":"0","INCLINATION":"53.0509","ECCENTRICITY":"0.00092620","BSTAR":"-0.00005968000000","DECAY_DATE":null,"MEAN_MOTION_DDOT":"0.0000000000000","RA_OF_ASC_NODE":"324.0346","REV_AT_EPOCH":"7935","COUNTRY_CODE":"US","MEAN_ANOMALY":"42.8533"},{"COUNTRY_CODE":"US","MEAN_ANOMALY":"274.4804","DECAY_DATE":null,"BSTAR":"0.00004755300000","MEAN_MOTION_DDOT":"0.0000000000000","REV_AT_EPOCH":"7825","RA_OF_ASC_NODE":"41.0153","MEAN_MOTION_DOT":"0.00000427","REF_FRAME":"TEME","EPHEMERIS_TYPE":"0","INCLINATION":"53.0541","ECCENTRICITY":"0.00014290","EPOCH":"2022-08-03T13:14:47.505408","LAUNCH_DATE":"2021-03-14","ARG_OF_PERICENTER":"85.6348","RCS_SIZE":"LARGE","OBJECT_NAME":"STARLINK-2329","CENTER_NAME":"EARTH","PERIAPSIS":"546.229","TLE_LINE2":"2 47873  53.0541  41.0153 0001429  85.6348 274.4804 15.06398432 78255","OBJECT_TYPE":"PAYLOAD","TLE_LINE1":"1 47873U 21021P   22215.55193872  .00000427  00000-0  47553-4 0  9998","CLASSIFICATION_TYPE":"U","GP_ID":"209492968","OBJECT_ID":"2021-021P","FILE":"3528364","ELEMENT_SET_NO":"999","APOAPSIS":"548.208","MEAN_MOTION":"15.06398432","TIME_SYSTEM":"UTC","SITE":"AFETR","NORAD_CAT_ID":"47873","MEAN_ELEMENT_THEORY":"SGP4","SEMIMAJOR_AXIS":"6925.353","PERIOD":"95.592"},{"ARG_OF_PERICENTER":"73.1701","LAUNCH_DATE":"2021-03-14","EPOCH":"2022-08-03T08:42:08.134560","ECCENTRICITY":"0.00014260","INCLINATION":"53.0583","EPHEMERIS_TYPE":"0","REF_FRAME":"TEME","MEAN_MOTION_DOT":"-0.00001132","REV_AT_EPOCH":"7886","RA_OF_ASC_NODE":"356.8778","MEAN_MOTION_DDOT":"0.0000000000000","BSTAR":"-0.00005714700000","DECAY_DATE":null,"MEAN_ANOMALY":"286.9445","COUNTRY_CODE":"US","PERIOD":"95.593","SEMIMAJOR_AXIS":"6925.414","MEAN_ELEMENT_THEORY":"SGP4","NORAD_CAT_ID":"47874","SITE":"AFETR","APOAPSIS":"548.267","MEAN_MOTION":"15.06378598","TIME_SYSTEM":"UTC","ELEMENT_SET_NO":"999","FILE":"3528364","OBJECT_ID":"2021-021Q","GP_ID":"209493218","CLASSIFICATION_TYPE":"U","TLE_LINE1":"1 47874U 21021Q   22215.36259415 -.00001132  00000-0 -57147-4 0  9990","OBJECT_TYPE":"PAYLOAD","TLE_LINE2":"2 47874  53.0583 356.8778 0001426  73.1701 286.9445 15.06378598 78861","PERIAPSIS":"546.292","CENTER_NAME":"EARTH","OBJECT_NAME":"STARLINK-2330","RCS_SIZE":"LARGE"},{"SITE":"AFETR","NORAD_CAT_ID":"47875","MEAN_ELEMENT_THEORY":"SGP4","OBJECT_ID":"2021-021R","FILE":"3528364","ELEMENT_SET_NO":"999","APOAPSIS":"548.215","MEAN_MOTION":"15.06397289","TIME_SYSTEM":"UTC","SEMIMAJOR_AXIS":"6925.357","PERIOD":"95.592","OBJECT_NAME":"STARLINK-2331","PERIAPSIS":"546.229","CENTER_NAME":"EARTH","TLE_LINE2":"2 47875  53.0556  52.2543 0001434 108.3228 251.7917 15.06397289 78135","RCS_SIZE":"LARGE","GP_ID":"209493469","OBJECT_TYPE":"PAYLOAD","TLE_LINE1":"1 47875U 21021R   22215.27826891  .00000755  00000-0  69578-4 0  9998","CLASSIFICATION_TYPE":"U","ECCENTRICITY":"0.00014340","MEAN_MOTION_DOT":"0.00000755","REF_FRAME":"TEME","EPHEMERIS_TYPE":"0","INCLINATION":"53.0556","ARG_OF_PERICENTER":"108.3228","EPOCH":"2022-08-03T06:40:42.433824","LAUNCH_DATE":"2021-03-14","COUNTRY_CODE":"US","MEAN_ANOMALY":"251.7917","REV_AT_EPOCH":"7813","RA_OF_ASC_NODE":"52.2543","DECAY_DATE":null,"BSTAR":"0.00006957800000","MEAN_MOTION_DDOT":"0.0000000000000"}];
